{
  "type": "FeatureCollection",
  "features": [
    {
      "type": "Feature",
      "properties": {
        "norad_id": 37846,
        "name": "GSAT0101 (GALILEO-PFM)",
        "group": "galileo",
        "lat": 23.234805439975876,
        "lon": 2.8193729428285237,
        "alt_km": 23216.315807956165,
        "timestamp": "2025-12-18T19:29:52.807153+00:00",
        "meta_object_name": "GSAT0101 (GALILEO-PFM)",
        "meta_object_id": "2011-060A",
        "meta_epoch": "2025-12-15T20:00:41.819904",
        "meta_mean_motion": 1.70475823,
        "meta_eccentricity": 0.00030775,
        "meta_inclination": 57.052,
        "meta_ra_of_asc_node": 346.7358,
        "meta_arg_of_pericenter": 316.7426,
        "meta_mean_anomaly": 43.2514,
        "meta_ephemeris_type": 0,
        "meta_classification_type": "U",
        "meta_norad_cat_id": 37846,
        "meta_element_set_no": 999,
        "meta_rev_at_epoch": 8799,
        "meta_bstar": 0,
        "meta_mean_motion_dot": -8.2e-07,
        "meta_mean_motion_ddot": 0,
        "tle_line1": "1 37846U 11060A   25349.83381736 -.00000082  00000+0  00000+0 0  9997",
        "tle_line2": "2 37846  57.0520 346.7358 0003077 316.7426  43.2514  1.70475823 87990"
      },
      "geometry": {
        "type": "Point",
        "coordinates": [
          2.8193729428285237,
          23.234805439975876
        ]
      }
    },
    {
      "type": "Feature",
      "properties": {
        "norad_id": 37847,
        "name": "GSAT0102 (GALILEO-FM2)",
        "group": "galileo",
        "lat": 53.57329662492287,
        "lon": 48.166072617063016,
        "alt_km": 23223.73173224907,
        "timestamp": "2025-12-18T19:29:52.807175+00:00",
        "meta_object_name": "GSAT0102 (GALILEO-FM2)",
        "meta_object_id": "2011-060B",
        "meta_epoch": "2025-12-18T04:50:23.608032",
        "meta_mean_motion": 1.70476038,
        "meta_eccentricity": 0.00050885,
        "meta_inclination": 57.0523,
        "meta_ra_of_asc_node": 346.6721,
        "meta_arg_of_pericenter": 311.7479,
        "meta_mean_anomaly": 106.914,
        "meta_ephemeris_type": 0,
        "meta_classification_type": "U",
        "meta_norad_cat_id": 37847,
        "meta_element_set_no": 999,
        "meta_rev_at_epoch": 8804,
        "meta_bstar": 0,
        "meta_mean_motion_dot": -7.6e-07,
        "meta_mean_motion_ddot": 0,
        "tle_line1": "1 37847U 11060B   25352.20166213 -.00000076  00000+0  00000+0 0  9997",
        "tle_line2": "2 37847  57.0523 346.6721 0005088 311.7479 106.9140  1.70476038 88042"
      },
      "geometry": {
        "type": "Point",
        "coordinates": [
          48.166072617063016,
          53.57329662492287
        ]
      }
    },
    {
      "type": "Feature",
      "properties": {
        "norad_id": 38857,
        "name": "GSAT0103 (GALILEO-FM3)",
        "group": "galileo",
        "lat": 2.8172690291171105,
        "lon": 108.41288077749755,
        "alt_km": 23222.80100761371,
        "timestamp": "2025-12-18T19:29:52.807190+00:00",
        "meta_object_name": "GSAT0103 (GALILEO-FM3)",
        "meta_object_id": "2012-055A",
        "meta_epoch": "2025-12-17T15:12:30.323520",
        "meta_mean_motion": 1.70473416,
        "meta_eccentricity": 0.00028237,
        "meta_inclination": 55.6952,
        "meta_ra_of_asc_node": 106.5322,
        "meta_arg_of_pericenter": 269.0015,
        "meta_mean_anomaly": 90.9249,
        "meta_ephemeris_type": 0,
        "meta_classification_type": "U",
        "meta_norad_cat_id": 38857,
        "meta_element_set_no": 999,
        "meta_rev_at_epoch": 8191,
        "meta_bstar": 0,
        "meta_mean_motion_dot": -8e-08,
        "meta_mean_motion_ddot": 0,
        "tle_line1": "1 38857U 12055A   25351.63368430 -.00000008  00000+0  00000+0 0  9990",
        "tle_line2": "2 38857  55.6952 106.5322 0002823 269.0015  90.9249  1.70473416 81917"
      },
      "geometry": {
        "type": "Point",
        "coordinates": [
          108.41288077749755,
          2.8172690291171105
        ]
      }
    },
    {
      "type": "Feature",
      "properties": {
        "norad_id": 40128,
        "name": "GSAT0201 (GALILEO 5)",
        "group": "galileo",
        "lat": -16.09554446746978,
        "lon": -93.67758563487995,
        "alt_km": 26031.82769485991,
        "timestamp": "2025-12-18T19:29:52.807202+00:00",
        "meta_object_name": "GSAT0201 (GALILEO 5)",
        "meta_object_id": "2014-050A",
        "meta_epoch": "2025-12-14T00:08:14.916480",
        "meta_mean_motion": 1.85519648,
        "meta_eccentricity": 0.16480052,
        "meta_inclination": 49.0753,
        "meta_ra_of_asc_node": 281.012,
        "meta_arg_of_pericenter": 172.3262,
        "meta_mean_anomaly": 190.5827,
        "meta_ephemeris_type": 0,
        "meta_classification_type": "U",
        "meta_norad_cat_id": 40128,
        "meta_element_set_no": 999,
        "meta_rev_at_epoch": 7488,
        "meta_bstar": 0,
        "meta_mean_motion_dot": -9.9e-07,
        "meta_mean_motion_ddot": 0,
        "tle_line1": "1 40128U 14050A   25348.00572820 -.00000099  00000+0  00000+0 0  9998",
        "tle_line2": "2 40128  49.0753 281.0120 1648005 172.3262 190.5827  1.85519648 74882"
      },
      "geometry": {
        "type": "Point",
        "coordinates": [
          -93.67758563487995,
          -16.09554446746978
        ]
      }
    },
    {
      "type": "Feature",
      "properties": {
        "norad_id": 40129,
        "name": "GSAT0202 (GALILEO 6)",
        "group": "galileo",
        "lat": 16.95532379229137,
        "lon": 84.57689041670582,
        "alt_km": 17103.434470490545,
        "timestamp": "2025-12-18T19:29:52.807214+00:00",
        "meta_object_name": "GSAT0202 (GALILEO 6)",
        "meta_object_id": "2014-050B",
        "meta_epoch": "2025-12-14T06:17:14.023104",
        "meta_mean_motion": 1.85520414,
        "meta_eccentricity": 0.16487132,
        "meta_inclination": 49.0906,
        "meta_ra_of_asc_node": 280.0852,
        "meta_arg_of_pericenter": 173.0839,
        "meta_mean_anomaly": 189.5459,
        "meta_ephemeris_type": 0,
        "meta_classification_type": "U",
        "meta_norad_cat_id": 40129,
        "meta_element_set_no": 999,
        "meta_rev_at_epoch": 7705,
        "meta_bstar": 0,
        "meta_mean_motion_dot": -9.7e-07,
        "meta_mean_motion_ddot": 0,
        "tle_line1": "1 40129U 14050B   25348.26196786 -.00000097  00000+0  00000+0 0  9998",
        "tle_line2": "2 40129  49.0906 280.0852 1648713 173.0839 189.5459  1.85520414 77052"
      },
      "geometry": {
        "type": "Point",
        "coordinates": [
          84.57689041670582,
          16.95532379229137
        ]
      }
    },
    {
      "type": "Feature",
      "properties": {
        "norad_id": 40544,
        "name": "GSAT0203 (GALILEO 7)",
        "group": "galileo",
        "lat": 13.227539629462255,
        "lon": 157.66810933850226,
        "alt_km": 23226.859425184783,
        "timestamp": "2025-12-18T19:29:52.807225+00:00",
        "meta_object_name": "GSAT0203 (GALILEO 7)",
        "meta_object_id": "2015-017A",
        "meta_epoch": "2025-12-17T08:55:11.074944",
        "meta_mean_motion": 1.7047611,
        "meta_eccentricity": 0.00064774,
        "meta_inclination": 56.8452,
        "meta_ra_of_asc_node": 346.5536,
        "meta_arg_of_pericenter": 273.4606,
        "meta_mean_anomaly": 86.4809,
        "meta_ephemeris_type": 0,
        "meta_classification_type": "U",
        "meta_norad_cat_id": 40544,
        "meta_element_set_no": 999,
        "meta_rev_at_epoch": 6610,
        "meta_bstar": 0,
        "meta_mean_motion_dot": -7.9e-07,
        "meta_mean_motion_ddot": 0,
        "tle_line1": "1 40544U 15017A   25351.37165596 -.00000079  00000+0  00000+0 0  9994",
        "tle_line2": "2 40544  56.8452 346.5536 0006477 273.4606  86.4809  1.70476110 66108"
      },
      "geometry": {
        "type": "Point",
        "coordinates": [
          157.66810933850226,
          13.227539629462255
        ]
      }
    },
    {
      "type": "Feature",
      "properties": {
        "norad_id": 40545,
        "name": "GSAT0204 (GALILEO 8)",
        "group": "galileo",
        "lat": 6.213908312195488,
        "lon": -9.392832408263828,
        "alt_km": 23225.365791161603,
        "timestamp": "2025-12-18T19:29:52.807237+00:00",
        "meta_object_name": "GSAT0204 (GALILEO 8)",
        "meta_object_id": "2015-017B",
        "meta_epoch": "2025-12-17T00:58:24.286368",
        "meta_mean_motion": 1.7047563,
        "meta_eccentricity": 0.00061734,
        "meta_inclination": 56.8525,
        "meta_ra_of_asc_node": 346.5804,
        "meta_arg_of_pericenter": 265.1091,
        "meta_mean_anomaly": 94.8366,
        "meta_ephemeris_type": 0,
        "meta_classification_type": "U",
        "meta_norad_cat_id": 40545,
        "meta_element_set_no": 999,
        "meta_rev_at_epoch": 2914,
        "meta_bstar": 0,
        "meta_mean_motion_dot": -8e-07,
        "meta_mean_motion_ddot": 0,
        "tle_line1": "1 40545U 15017B   25351.04055887 -.00000080  00000+0  00000+0 0  9992",
        "tle_line2": "2 40545  56.8525 346.5804 0006173 265.1091  94.8366  1.70475630 29147"
      },
      "geometry": {
        "type": "Point",
        "coordinates": [
          -9.392832408263828,
          6.213908312195488
        ]
      }
    }
  ]
}